[{"OBJECT_NAME":"OBJECT C","OBJECT_ID":"2024-085C","EPOCH":"2026-03-09T22:49:58.289376","MEAN_MOTION":15.31893958,"ECCENTRICITY":0.00283931,"INCLINATION":97.3357,"RA_OF_ASC_NODE":145.6975,"ARG_OF_PERICENTER":37.3887,"MEAN_ANOMALY":322.9323,"EPHEMERIS_TYPE":0,"CLASSIFICATION_TYPE":"U","NORAD_CAT_ID":59679,"ELEMENT_SET_NO":999,"REV_AT_EPOCH":10244,"BSTAR":0.00039740634,"MEAN_MOTION_DOT":0.0001232,"MEAN_MOTION_DDOT":0},{"OBJECT_NAME":"STARLINK-32896","OBJECT_ID":"2025-029M","EPOCH":"2026-03-09T18:14:49.396416","MEAN_MOTION":15.30198285,"ECCENTRICITY":0.000128,"INCLINATION":53.1581,"RA_OF_ASC_NODE":232.4674,"ARG_OF_PERICENTER":66.5095,"MEAN_ANOMALY":293.604,"EPHEMERIS_TYPE":0,"CLASSIFICATION_TYPE":"U","NORAD_CAT_ID":62959,"ELEMENT_SET_NO":999,"REV_AT_EPOCH":6132,"BSTAR":0.00082153464,"MEAN_MOTION_DOT":0.0002405,"MEAN_MOTION_DDOT":0}]
